start=new Date('2021-12-12T00:00:00.000Z').valueOf();
sats=[{"MEAN_ANOMALY":"302.7596","SEMIMAJOR_AXIS":"6925.352","DECAY_DATE":null,"APOAPSIS":"548.648","OBJECT_ID":"2020-019L","CENTER_NAME":"EARTH","MEAN_MOTION":"15.06398922","ELEMENT_SET_NO":"999","SITE":"AFETR","LAUNCH_DATE":"2020-03-18","RA_OF_ASC_NODE":"279.5260","CLASSIFICATION_TYPE":"U","NORAD_CAT_ID":"45370","COUNTRY_CODE":"US","OBJECT_TYPE":"PAYLOAD","EPOCH":"2021-12-11T20:54:50.044320","EPHEMERIS_TYPE":"0","FILE":"3237650","GP_ID":"191521121","REV_AT_EPOCH":"9629","MEAN_MOTION_DOT":"0.00000220","TIME_SYSTEM":"UTC","BSTAR":"0.00003371100000","MEAN_ELEMENT_THEORY":"SGP4","TLE_LINE2":"2 45370  53.0544 279.5260 0002067  57.3592 302.7596 15.06398922 96292","ECCENTRICITY":"0.00020670","PERIAPSIS":"545.785","OBJECT_NAME":"STARLINK-1281","INCLINATION":"53.0544","ARG_OF_PERICENTER":"57.3592","RCS_SIZE":"LARGE","REF_FRAME":"TEME","PERIOD":"95.592","MEAN_MOTION_DDOT":"0.0000000000000","TLE_LINE1":"1 45370U 20019L   21345.87141255  .00000220  00000-0  33711-4 0  9992"},{"ARG_OF_PERICENTER":"55.8194","RCS_SIZE":"LARGE","INCLINATION":"53.0535","OBJECT_NAME":"STARLINK-1287","PERIAPSIS":"545.598","TLE_LINE1":"1 45371U 20019M   21345.23743326  .00001394  00000-0  11251-3 0  9997","PERIOD":"95.592","MEAN_MOTION_DDOT":"0.0000000000000","REF_FRAME":"TEME","GP_ID":"191492141","EPOCH":"2021-12-11T05:41:54.233664","EPHEMERIS_TYPE":"0","FILE":"3237453","TLE_LINE2":"2 45371  53.0535 282.3753 0002334  55.8194 304.3016 15.06399876 96193","ECCENTRICITY":"0.00023340","TIME_SYSTEM":"UTC","BSTAR":"0.00011251000000","MEAN_ELEMENT_THEORY":"SGP4","MEAN_MOTION_DOT":"0.00001394","REV_AT_EPOCH":"9619","RA_OF_ASC_NODE":"282.3753","CLASSIFICATION_TYPE":"U","SITE":"AFETR","LAUNCH_DATE":"2020-03-18","COUNTRY_CODE":"US","OBJECT_TYPE":"PAYLOAD","NORAD_CAT_ID":"45371","DECAY_DATE":null,"APOAPSIS":"548.830","SEMIMAJOR_AXIS":"6925.349","MEAN_ANOMALY":"304.3016","MEAN_MOTION":"15.06399876","ELEMENT_SET_NO":"999","OBJECT_ID":"2020-019M","CENTER_NAME":"EARTH"},{"GP_ID":"191519627","EPOCH":"2021-12-11T21:58:32.011392","FILE":"3237650","EPHEMERIS_TYPE":"0","TIME_SYSTEM":"UTC","BSTAR":"0.00007260800000","MEAN_ELEMENT_THEORY":"SGP4","TLE_LINE2":"2 45372  53.0553 279.3443 0002128  62.3740 297.7465 15.06394461 96296","ECCENTRICITY":"0.00021280","REV_AT_EPOCH":"9629","MEAN_MOTION_DOT":"0.00000800","INCLINATION":"53.0553","ARG_OF_PERICENTER":"62.3740","RCS_SIZE":"LARGE","PERIAPSIS":"545.757","OBJECT_NAME":"STARLINK-1288","TLE_LINE1":"1 45372U 20019N   21345.91564828  .00000800  00000-0  72608-4 0  9996","REF_FRAME":"TEME","PERIOD":"95.592","MEAN_MOTION_DDOT":"0.0000000000000","SEMIMAJOR_AXIS":"6925.366","DECAY_DATE":null,"APOAPSIS":"548.704","MEAN_ANOMALY":"297.7465","OBJECT_ID":"2020-019N","CENTER_NAME":"EARTH","ELEMENT_SET_NO":"999","MEAN_MOTION":"15.06394461","RA_OF_ASC_NODE":"279.3443","CLASSIFICATION_TYPE":"U","SITE":"AFETR","LAUNCH_DATE":"2020-03-18","COUNTRY_CODE":"US","OBJECT_TYPE":"PAYLOAD","NORAD_CAT_ID":"45372"},{"CLASSIFICATION_TYPE":"U","RA_OF_ASC_NODE":"280.9106","LAUNCH_DATE":"2020-03-18","SITE":"AFETR","OBJECT_TYPE":"PAYLOAD","COUNTRY_CODE":"US","NORAD_CAT_ID":"45373","SEMIMAJOR_AXIS":"6925.333","APOAPSIS":"548.876","DECAY_DATE":null,"MEAN_ANOMALY":"305.3132","OBJECT_ID":"2020-019P","CENTER_NAME":"EARTH","ELEMENT_SET_NO":"999","MEAN_MOTION":"15.06405074","INCLINATION":"53.0544","RCS_SIZE":"LARGE","ARG_OF_PERICENTER":"54.8084","PERIAPSIS":"545.520","OBJECT_NAME":"STARLINK-1295","TLE_LINE1":"1 45373U 20019P   21345.56547648  .00001311  00000-0  10688-3 0  9996","REF_FRAME":"TEME","MEAN_MOTION_DDOT":"0.0000000000000","PERIOD":"95.592","GP_ID":"191490640","EPHEMERIS_TYPE":"0","FILE":"3237453","EPOCH":"2021-12-11T13:34:17.167872","MEAN_ELEMENT_THEORY":"SGP4","BSTAR":"0.00010688000000","TIME_SYSTEM":"UTC","ECCENTRICITY":"0.00024230","TLE_LINE2":"2 45373  53.0544 280.9106 0002423  54.8084 305.3132 15.06405074 96241","MEAN_MOTION_DOT":"0.00001311","REV_AT_EPOCH":"9624"},{"MEAN_MOTION":"15.06390787","ELEMENT_SET_NO":"999","CENTER_NAME":"EARTH","OBJECT_ID":"2020-019Q","MEAN_ANOMALY":"300.1855","DECAY_DATE":null,"APOAPSIS":"548.918","SEMIMAJOR_AXIS":"6925.377","NORAD_CAT_ID":"45374","COUNTRY_CODE":"US","OBJECT_TYPE":"PAYLOAD","SITE":"AFETR","LAUNCH_DATE":"2020-03-18","RA_OF_ASC_NODE":"279.1415","CLASSIFICATION_TYPE":"U","MEAN_MOTION_DOT":"0.00000772","REV_AT_EPOCH":"9630","TLE_LINE2":"2 45374  53.0544 279.1415 0002421  59.9374 300.1855 15.06390787 96307","ECCENTRICITY":"0.00024210","TIME_SYSTEM":"UTC","BSTAR":"0.00007076900000","MEAN_ELEMENT_THEORY":"SGP4","EPOCH":"2021-12-11T23:02:14.393184","EPHEMERIS_TYPE":"0","FILE":"3237650","GP_ID":"191520629","PERIOD":"95.593","MEAN_MOTION_DDOT":"0.0000000000000","REF_FRAME":"TEME","TLE_LINE1":"1 45374U 20019Q   21345.95988881  .00000772  00000-0  70769-4 0  9995","OBJECT_NAME":"STARLINK-1300","PERIAPSIS":"545.565","ARG_OF_PERICENTER":"59.9374","RCS_SIZE":"LARGE","INCLINATION":"53.0544"},{"REF_FRAME":"TEME","PERIOD":"95.592","MEAN_MOTION_DDOT":"0.0000000000000","TLE_LINE1":"1 45375U 20019R   21345.90827418 -.00000111  00000-0  11496-4 0  9999","PERIAPSIS":"545.674","OBJECT_NAME":"STARLINK-1302","INCLINATION":"53.0553","ARG_OF_PERICENTER":"61.8176","RCS_SIZE":"LARGE","REV_AT_EPOCH":"9629","MEAN_MOTION_DOT":"-0.00000111","TIME_SYSTEM":"UTC","BSTAR":"0.00001149600000","MEAN_ELEMENT_THEORY":"SGP4","TLE_LINE2":"2 45375  53.0553 279.3783 0002227  61.8176 298.3038 15.06399257 96294","ECCENTRICITY":"0.00022270","EPOCH":"2021-12-11T21:47:54.889152","FILE":"3237650","EPHEMERIS_TYPE":"0","GP_ID":"191519870","NORAD_CAT_ID":"45375","COUNTRY_CODE":"US","OBJECT_TYPE":"PAYLOAD","SITE":"AFETR","LAUNCH_DATE":"2020-03-18","RA_OF_ASC_NODE":"279.3783","CLASSIFICATION_TYPE":"U","OBJECT_ID":"2020-019R","CENTER_NAME":"EARTH","ELEMENT_SET_NO":"999","MEAN_MOTION":"15.06399257","MEAN_ANOMALY":"298.3038","SEMIMAJOR_AXIS":"6925.351","DECAY_DATE":null,"APOAPSIS":"548.758"},{"TLE_LINE1":"1 45376U 20019S   21345.52862845 -.00000755  00000-0 -31805-4 0  9992","REF_FRAME":"TEME","PERIOD":"95.593","MEAN_MOTION_DDOT":"0.0000000000000","INCLINATION":"53.0550","ARG_OF_PERICENTER":"62.7690","RCS_SIZE":"LARGE","PERIAPSIS":"545.861","OBJECT_NAME":"STARLINK-1304","TIME_SYSTEM":"UTC","MEAN_ELEMENT_THEORY":"SGP4","BSTAR":"-0.00003180500000","TLE_LINE2":"2 45376  53.0550 281.0805 0001996  62.7690 297.3502 15.06390186 96231","ECCENTRICITY":"0.00019960","REV_AT_EPOCH":"9623","MEAN_MOTION_DOT":"-0.00000755","GP_ID":"191492392","EPOCH":"2021-12-11T12:41:13.498080","FILE":"3237453","EPHEMERIS_TYPE":"0","COUNTRY_CODE":"US","OBJECT_TYPE":"PAYLOAD","NORAD_CAT_ID":"45376","RA_OF_ASC_NODE":"281.0805","CLASSIFICATION_TYPE":"U","SITE":"AFETR","LAUNCH_DATE":"2020-03-18","OBJECT_ID":"2020-019S","CENTER_NAME":"EARTH","MEAN_MOTION":"15.06390186","ELEMENT_SET_NO":"999","SEMIMAJOR_AXIS":"6925.379","DECAY_DATE":null,"APOAPSIS":"548.626","MEAN_ANOMALY":"297.3502"},{"PERIAPSIS":"545.647","OBJECT_NAME":"STARLINK-1305","INCLINATION":"53.0544","RCS_SIZE":"LARGE","ARG_OF_PERICENTER":"60.1501","REF_FRAME":"TEME","MEAN_MOTION_DDOT":"0.0000000000000","PERIOD":"95.593","TLE_LINE1":"1 45377U 20019T   21345.55443553  .00000773  00000-0  70802-4 0  9995","FILE":"3237634","EPHEMERIS_TYPE":"0","EPOCH":"2021-12-11T13:18:23.229792","GP_ID":"191500344","MEAN_MOTION_DOT":"0.00000773","REV_AT_EPOCH":"9624","MEAN_ELEMENT_THEORY":"SGP4","BSTAR":"0.00007080200000","TIME_SYSTEM":"UTC","ECCENTRICITY":"0.00023070","TLE_LINE2":"2 45377  53.0544 280.9591 0002307  60.1501 299.9717 15.06389931 96248","LAUNCH_DATE":"2020-03-18","SITE":"AFETR","CLASSIFICATION_TYPE":"U","RA_OF_ASC_NODE":"280.9591","NORAD_CAT_ID":"45377","OBJECT_TYPE":"PAYLOAD","COUNTRY_CODE":"US","MEAN_ANOMALY":"299.9717","SEMIMAJOR_AXIS":"6925.379","APOAPSIS":"548.842","DECAY_DATE":null,"OBJECT_ID":"2020-019T","CENTER_NAME":"EARTH","MEAN_MOTION":"15.06389931","ELEMENT_SET_NO":"999"},{"OBJECT_TYPE":"PAYLOAD","COUNTRY_CODE":"US","NORAD_CAT_ID":"45378","CLASSIFICATION_TYPE":"U","RA_OF_ASC_NODE":"279.8257","LAUNCH_DATE":"2020-03-18","SITE":"AFETR","OBJECT_ID":"2020-019U","CENTER_NAME":"EARTH","MEAN_MOTION":"15.06390398","ELEMENT_SET_NO":"999","SEMIMAJOR_AXIS":"6925.378","APOAPSIS":"548.768","DECAY_DATE":null,"MEAN_ANOMALY":"299.3328","TLE_LINE1":"1 45378U 20019U   21345.80876534  .00000884  00000-0  78260-4 0  9992","REF_FRAME":"TEME","MEAN_MOTION_DDOT":"0.0000000000000","PERIOD":"95.593","INCLINATION":"53.0553","RCS_SIZE":"LARGE","ARG_OF_PERICENTER":"60.7881","PERIAPSIS":"545.718","OBJECT_NAME":"STARLINK-1310","MEAN_ELEMENT_THEORY":"SGP4","BSTAR":"0.00007826000000","TIME_SYSTEM":"UTC","ECCENTRICITY":"0.00022020","TLE_LINE2":"2 45378  53.0553 279.8257 0002202  60.7881 299.3328 15.06390398 96281","REV_AT_EPOCH":"9628","MEAN_MOTION_DOT":"0.00000884","GP_ID":"191521122","EPHEMERIS_TYPE":"0","FILE":"3237650","EPOCH":"2021-12-11T19:24:37.325376"},{"NORAD_CAT_ID":"45379","COUNTRY_CODE":"US","OBJECT_TYPE":"PAYLOAD","SITE":"AFETR","LAUNCH_DATE":"2020-03-18","RA_OF_ASC_NODE":"279.5062","CLASSIFICATION_TYPE":"U","MEAN_MOTION":"15.06397578","ELEMENT_SET_NO":"999","OBJECT_ID":"2020-019V","CENTER_NAME":"EARTH","MEAN_ANOMALY":"301.4186","DECAY_DATE":null,"APOAPSIS":"548.711","SEMIMAJOR_AXIS":"6925.356","PERIOD":"95.592","MEAN_MOTION_DDOT":"0.0000000000000","REF_FRAME":"TEME","TLE_LINE1":"1 45379U 20019V   21345.87878918  .00000821  00000-0  74055-4 0  9997","OBJECT_NAME":"STARLINK-1319","PERIAPSIS":"545.731","ARG_OF_PERICENTER":"58.7013","RCS_SIZE":"LARGE","INCLINATION":"53.0543","REV_AT_EPOCH":"9629","MEAN_MOTION_DOT":"0.00000821","TLE_LINE2":"2 45379  53.0543 279.5062 0002151  58.7013 301.4186 15.06397578 96294","ECCENTRICITY":"0.00021510","TIME_SYSTEM":"UTC","BSTAR":"0.00007405500000","MEAN_ELEMENT_THEORY":"SGP4","EPOCH":"2021-12-11T21:05:27.385152","FILE":"3237650","EPHEMERIS_TYPE":"0","GP_ID":"191519378"}];
